OBJECT_NAME,OBJECT_ID,EPOCH,MEAN_MOTION,ECCENTRICITY,INCLINATION,RA_OF_ASC_NODE,ARG_OF_PERICENTER,MEAN_ANOMALY,EPHEMERIS_TYPE,CLASSIFICATION_TYPE,NORAD_CAT_ID,ELEMENT_SET_NO,REV_AT_EPOCH,BSTAR,MEAN_MOTION_DOT,MEAN_MOTION_DDOT
SITRO-AIS 6 (CHIRKIN),2023-091AC,2026-07-12T14:51:32.400000,15.26407827,.00114592,97.5061,256.7504,25.3945,334.7854,0,U,57192,999,16816,.22662534E-3,.5834E-4,0
SITRO-AIS 8 (ANOKHIN),2023-091AD,2026-07-12T14:49:43.326912,15.32812491,.0009789,97.5051,259.4611,17.4346,342.7230,0,U,57193,999,16834,.26282976E-3,.8261E-4,0
SITRO-AIS 7 (FARTUSHNIY),2023-091AE,2026-07-12T13:29:16.845792,15.26082229,.00114131,97.5057,256.5046,26.7764,333.4061,0,U,57194,999,16814,.21871195E-3,.5572E-4,0
AVION KALUGA 650,2023-091AF,2026-07-12T13:33:35.060832,15.20615518,.00106892,97.5080,253.0406,31.1270,329.0597,0,U,57195,999,16788,.15297019E-3,.3288E-4,0
HORS 2,2023-091AG,2026-07-12T13:38:57.052896,15.32520547,.00071046,97.5084,260.9531,4.8662,355.2647,0,U,57196,999,16841,.2679399E-3,.834E-4,0
A-SEANSAT-PG1,2023-091AH,2026-07-12T14:10:13.327392,15.37825237,.00059086,97.5076,263.7272,359.6297,0.4942,0,U,57197,999,16861,.30949658E-3,.11429E-3,0
SITRO-AIS 10 (BURDAEV),2023-091AK,2026-07-12T11:24:23.308128,15.39559788,.00050891,97.5076,264.6369,352.7880,7.3291,0,U,57199,999,16865,.34477552E-3,.13486E-3,0
SITRO-AIS 9 (SHCHUKIN),2023-091AM,2026-07-12T13:47:52.853856,15.39047910,.00053596,97.5074,264.4486,352.6622,7.4544,0,U,57201,999,16865,.32659024E-3,.12556E-3,0
UTMN 2 (RS27S),2023-091AP,2026-07-12T14:14:32.904096,15.32662504,.00069825,97.5082,261.1750,359.9451,0.1789,0,U,57203,999,16843,.25956365E-3,.8113E-4,0
SITRO-AIS 12 (SMIRENNIY),2023-091AQ,2026-07-12T11:53:48.489504,15.39341871,.00049009,97.5088,264.8507,345.9883,14.1225,0,U,57204,999,16866,.32707998E-3,.12696E-3,0
SITRO-AIS 11 (SHEFFER),2023-091AU,2026-07-12T12:02:52.282464,15.39783637,.00048057,97.5086,265.1199,345.3801,14.7304,0,U,57208,999,16868,.32272794E-3,.12709E-3,0
H2SAT (HEINRICH HERTZ),2023-093A,2026-07-12T10:04:59.302848,1.00269645,.00003422,0.0168,98.0954,44.4206,299.7415,0,U,57213,999,1116,0,.3E-7,0
KUZGTU 1 (RS47S),2023-091AV,2026-07-12T14:29:09.982464,15.30433131,.00103397,97.5058,258.3500,15.5900,344.5656,0,U,57217,999,16826,.25906442E-3,.7558E-4,0
QIANKUN-1,2023-103B,2026-07-09T12:23:52.426464,16.07683835,.0036275,96.1478,233.7894,139.5319,220.8675,0,U,57422,999,17088,.17456964E-4,.14836E-3,.1743906E-5
FENGYUN 3F,2023-111A,2026-07-12T14:57:54.299232,14.19943139,.00013204,98.6826,263.1571,77.5064,282.6260,0,U,57490,999,15247,.17158239E-4,-.7E-7,0
HJ-2F,2023-116A,2026-07-12T14:55:16.472352,15.22672842,.0006843,97.3844,198.4032,323.7210,36.3562,0,U,57519,999,16262,.19724207E-3,.4526E-4,0
XRISM,2023-137A,2026-07-12T11:09:29.403360,15.12657724,.00078336,31.0006,195.8363,219.3306,140.6765,0,U,57800,999,15669,.10954946E-3,.2062E-4,0
METEOR-M2 4,2024-039A,2026-07-12T13:50:42.523584,14.22431991,.00082455,98.7023,152.5576,95.2597,264.9522,0,U,59051,999,12287,.9952084E-5,-.22E-6,0
GRBBETA,2024-128C,2026-07-12T08:56:08.559456,15.06796996,.00373929,61.9894,127.8929,140.0298,220.3558,0,U,60237,999,11006,.14651018E-3,.2004E-4,0
TRANSPORTER-11 OBJECT A,2024-149A,2026-07-11T18:14:25.836000,15.33303880,.00047679,97.3731,272.6183,125.1154,235.0536,0,U,60468,999,10582,.16510849E-3,.5235E-4,0
WARATAH SEED-1,2024-149B,2026-07-11T17:34:39.377280,15.36561434,.00030937,97.3689,273.3385,127.2537,232.8989,0,U,60469,999,10588,.22648795E-3,.8002E-4,0
PHISAT 2,2024-149C,2026-07-11T17:59:04.423200,15.31390094,.00030464,97.3757,271.8326,128.5103,231.6411,0,U,60470,999,10575,.15212698E-3,.4534E-4,0
LEMUR-2-TOMATOKECHUP,2024-149D,2026-07-11T19:02:16.185696,15.36537067,.00031228,97.3803,274.9096,128.0995,232.0531,0,U,60471,999,10594,.18430322E-3,.649E-4,0
CONNECTA IOT-1,2024-149E,2026-07-12T10:42:35.776224,15.23729014,.00025721,97.3756,269.3127,148.0589,212.0805,0,U,60472,999,10564,.10029475E-3,.2339E-4,0
LOPEN,2024-149F,2026-07-11T18:08:49.172352,15.40396900,.00025941,97.3777,276.3266,139.9824,220.1614,0,U,60473,999,10604,.22444274E-3,.8989E-4,0
ROCK,2024-149G,2026-07-11T17:49:40.879200,15.40385501,.00029064,97.3774,276.3276,138.0719,222.0751,0,U,60474,999,10604,.22776898E-3,.912E-4,0
CONNECTA IOT-3,2024-149H,2026-07-10T04:03:17.686944,15.23731231,.00035052,97.3727,266.8195,155.4468,204.6937,0,U,60475,999,10530,.12236852E-3,.287E-4,0
QUBE,2024-149J,2026-07-11T17:46:41.403936,15.48390200,.00032682,97.3773,279.6667,135.6882,224.4631,0,U,60476,999,10626,.2960579E-3,.15602E-3,0
WREN-1,2024-149L,2026-07-11T19:02:02.297760,15.42533858,.00051942,97.3769,277.1787,161.1245,199.0196,0,U,60478,999,10611,.30344332E-3,.13091E-3,0
