SITRO-AIS 6 (CHIRKIN)   
1 57192U 23091AC  26193.61912500  .00005834  00000+0  22663-3 0  9995
2 57192  97.5061 256.7504 0011459  25.3945 334.7854 15.26407827168169
SITRO-AIS 8 (ANOKHIN)   
1 57193U 23091AD  26193.61786258  .00008261  00000+0  26283-3 0  9994
2 57193  97.5051 259.4611 0009789  17.4346 342.7230 15.32812491168349
SITRO-AIS 7 (FARTUSHNIY)
1 57194U 23091AE  26193.56200053  .00005572  00000+0  21871-3 0  9993
2 57194  97.5057 256.5046 0011413  26.7764 333.4061 15.26082229168148
AVION KALUGA 650        
1 57195U 23091AF  26193.56498913  .00003288  00000+0  15297-3 0  9995
2 57195  97.5080 253.0406 0010689  31.1270 329.0597 15.20615518167885
HORS 2                  
1 57196U 23091AG  26193.56871589  .00008340  00000+0  26794-3 0  9998
2 57196  97.5084 260.9531 0007104   4.8662 355.2647 15.32520547168413
A-SEANSAT-PG1           
1 57197U 23091AH  26193.59043203  .00011429  00000+0  30950-3 0  9997
2 57197  97.5076 263.7272 0005908 359.6297   0.4942 15.37825237168611
SITRO-AIS 10 (BURDAEV)  
1 57199U 23091AK  26193.47526977  .00013486  00000+0  34478-3 0  9994
2 57199  97.5076 264.6369 0005089 352.7880   7.3291 15.39559788168656
SITRO-AIS 9 (SHCHUKIN)  
1 57201U 23091AM  26193.57491729  .00012556  00000+0  32659-3 0  9991
2 57201  97.5074 264.4486 0005359 352.6622   7.4544 15.39047910168650
UTMN 2 (RS27S)          
1 57203U 23091AP  26193.59343639  .00008113  00000+0  25956-3 0  9997
2 57203  97.5082 261.1750 0006982 359.9451   0.1789 15.32662504168434
SITRO-AIS 12 (SMIRENNIY)
1 57204U 23091AQ  26193.49570011  .00012696  00000+0  32708-3 0  9997
2 57204  97.5088 264.8507 0004900 345.9883  14.1225 15.39341871168666
SITRO-AIS 11 (SHEFFER)  
1 57208U 23091AU  26193.50199401  .00012709  00000+0  32273-3 0  9995
2 57208  97.5086 265.1199 0004805 345.3801  14.7304 15.39783637168683
H2SAT (HEINRICH HERTZ)  
1 57213U 23093A   26193.42013082  .00000003  00000+0  00000+0 0  9997
2 57213   0.0168  98.0954 0000342  44.4206 299.7415  1.00269645 11168
KUZGTU 1 (RS47S)        
1 57217U 23091AV  26193.60358776  .00007558  00000+0  25906-3 0  9999
2 57217  97.5058 258.3500 0010339  15.5900 344.5656 15.30433131168267
QIANKUN-1               
1 57422U 23103B   26190.51657901  .00014836  17439-5  17457-4 0  9990
2 57422  96.1478 233.7894 0036275 139.5319 220.8675 16.07683835170888
FENGYUN 3F              
1 57490U 23111A   26193.62354513 -.00000007  00000+0  17158-4 0  9996
2 57490  98.6826 263.1571 0001320  77.5064 282.6260 14.19943139152475
HJ-2F                   
1 57519U 23116A   26193.62171843  .00004526  00000+0  19724-3 0  9995
2 57519  97.3844 198.4032 0006843 323.7210  36.3562 15.22672842162621
XRISM                   
1 57800U 23137A   26193.46492365  .00002062  00000+0  10955-3 0  9998
2 57800  31.0006 195.8363 0007833 219.3306 140.6765 15.12657724156698
METEOR-M2 4             
1 59051U 24039A   26193.57688106 -.00000022  00000+0  99521-5 0  9995
2 59051  98.7023 152.5576 0008245  95.2597 264.9522 14.22431991122874
GRBBETA                 
1 60237U 24128C   26193.37232129  .00002004  00000+0  14651-3 0  9990
2 60237  61.9894 127.8929 0037392 140.0298 220.3558 15.06796996110064
TRANSPORTER-11 OBJECT A 
1 60468U 24149A   26192.76002125  .00005235  00000+0  16511-3 0  9998
2 60468  97.3731 272.6183 0004767 125.1154 235.0536 15.33303880105822
WARATAH SEED-1          
1 60469U 24149B   26192.73240020  .00008002  00000+0  22649-3 0  9998
2 60469  97.3689 273.3385 0003093 127.2537 232.8989 15.36561434105883
PHISAT 2                
1 60470U 24149C   26192.74935675  .00004534  00000+0  15213-3 0  9993
2 60470  97.3757 271.8326 0003046 128.5103 231.6411 15.31390094105750
LEMUR-2-TOMATOKECHUP    
1 60471U 24149D   26192.79324289  .00006490  00000+0  18430-3 0  9999
2 60471  97.3803 274.9096 0003122 128.0995 232.0531 15.36537067105947
CONNECTA IOT-1          
1 60472U 24149E   26193.44624741  .00002339  00000+0  10029-3 0  9993
2 60472  97.3756 269.3127 0002572 148.0589 212.0805 15.23729014105647
LOPEN                   
1 60473U 24149F   26192.75612468  .00008989  00000+0  22444-3 0  9991
2 60473  97.3777 276.3266 0002594 139.9824 220.1614 15.40396900106044
ROCK                    
1 60474U 24149G   26192.74283425  .00009120  00000+0  22777-3 0  9995
2 60474  97.3774 276.3276 0002906 138.0719 222.0751 15.40385501106041
CONNECTA IOT-3          
1 60475U 24149H   26191.16895471  .00002870  00000+0  12237-3 0  9996
2 60475  97.3727 266.8195 0003505 155.4468 204.6937 15.23731231105300
QUBE                    
1 60476U 24149J   26192.74075699  .00015602  00000+0  29606-3 0  9999
2 60476  97.3773 279.6667 0003268 135.6882 224.4631 15.48390200106265
WREN-1                  
1 60478U 24149L   26192.79308215  .00013091  00000+0  30344-3 0  9990
2 60478  97.3769 277.1787 0005194 161.1245 199.0196 15.42533858106114
